OBJECT_NAME,OBJECT_ID,EPOCH,MEAN_MOTION,ECCENTRICITY,INCLINATION,RA_OF_ASC_NODE,ARG_OF_PERICENTER,MEAN_ANOMALY,EPHEMERIS_TYPE,CLASSIFICATION_TYPE,NORAD_CAT_ID,ELEMENT_SET_NO,REV_AT_EPOCH,BSTAR,MEAN_MOTION_DOT,MEAN_MOTION_DDOT
FORMOSAT 7-3,2019-036E,2026-06-16T17:18:29.272896,15.09796982,.0000311,23.9974,181.7483,254.8807,105.1662,0,U,44343,999,38317,.16843E-3,.3138E-4,0
FORMOSAT 7-1,2019-036L,2026-06-16T07:31:24.474144,14.96502381,.00008437,23.9980,38.2834,147.8049,212.2504,0,U,44349,999,38452,.17757215E-3,.2369E-4,0
FORMOSAT 7-4,2019-036M,2026-06-16T03:15:42.801120,14.96494412,.00011926,23.9977,101.5852,163.9496,196.1043,0,U,44350,999,38391,.16919047E-3,.2272E-4,0
FORMOSAT 7-2,2019-036N,2026-06-16T15:00:00.002592,14.96496590,.0000756,23.9963,152.6047,151.5374,208.5168,0,U,44351,999,38350,.14714E-3,.2015E-4,0
FORMOSAT 7-6,2019-036Q,2026-06-16T18:11:42.031104,14.96510275,.0001434,23.9992,332.5244,89.3524,270.7141,0,U,44353,999,38175,.17396E-3,.2328E-4,0
FORMOSAT 7-5,2019-036V,2026-06-16T14:26:55.103424,14.96516314,.0000593,23.9976,272.3289,117.3250,242.7311,0,U,44358,999,38226,.16209E-3,.219E-4,0
METEOR-M2 2,2019-038A,2026-06-16T21:26:33.402624,14.24364800,.0002075,98.9138,155.1742,49.1149,311.0209,0,U,44387,999,36125,-.90889E-4,-.256E-5,0
GLOBAL-4,2019-054E,2026-06-16T12:04:24.218112,15.64356641,.00060866,45.0049,240.3485,331.7510,28.3057,0,U,44499,999,38025,.40497701E-3,.3956E-3,0
ZY-1 02D,2019-059A,2026-06-16T05:35:20.300640,14.35458803,.0002435,98.3193,228.7512,108.2928,251.8523,0,U,44528,999,35420,-.13307E-4,-.8E-6,0
TAURUS-1 (JINNIUZUO 1),2019-059C,2026-06-16T20:02:18.924000,14.72093757,.0007441,98.6411,332.6407,317.9559,42.1074,0,U,44530,999,35859,.70125E-3,.4358E-4,0
ZHUHAI-1 03B,2019-060C,2026-06-16T20:40:24.409632,15.54073289,.0007468,97.5529,325.6084,319.0825,40.9867,0,U,44536,999,37627,.40877E-3,.2647E-3,0
ZHUHAI-1 03D,2019-060E,2026-06-16T20:04:18.909408,15.49732645,.0006632,97.5396,317.7064,301.7933,58.2671,0,U,44538,999,37602,.48874E-3,.27112E-3,0
ZHUHAI-1 03E,2019-060F,2026-06-16T20:29:40.619904,15.41056410,.0005962,97.5615,317.7889,34.4256,325.7375,0,U,44539,999,37571,.35467E-3,.14581E-3,0
GAOFEN-7,2019-072A,2026-06-16T20:52:55.279200,15.21262283,.001886,97.2429,229.3495,42.4980,317.7712,0,U,44703,999,36759,.16858E-3,.3717E-4,0
JILIN-1 GAOFEN 2A,2019-075A,2026-06-16T19:26:31.322400,15.39300782,.0007475,97.4970,251.5909,88.5699,271.6402,0,U,44777,999,36482,.31172E-3,.12085E-3,0
NINGXIA-1 1,2019-076A,2026-06-16T19:48:24.846912,14.02038164,.0010608,45.0036,181.4693,161.7337,198.3880,0,U,44779,999,33780,.29196E-4,-.85E-6,0
NINGXIA-1 5,2019-076E,2026-06-16T20:07:34.333248,14.02087043,.0010051,45.0033,180.7515,151.2184,208.9206,0,U,44783,999,33772,.1218E-3,.58E-6,0
KL-ALPHA A,2019-077A,2026-06-16T19:48:06.299424,13.56042876,.0013246,88.9253,222.6042,106.7241,253.5368,0,U,44785,999,32568,.58649E-4,.54E-6,0
CARTOSAT-3,2019-081A,2026-06-16T19:52:21.009216,15.19278587,.0013193,97.4305,229.7008,149.3681,210.8327,0,U,44804,999,36341,.12969E-3,.2673E-4,0
JILIN-1 GAOFEN 2B,2019-086A,2026-06-16T19:38:12.734880,15.20707915,.001288,97.4884,239.8112,325.7681,34.2723,0,U,44836,999,36043,.23226E-3,.5047E-4,0
TIANQIN 1 (CAS-6),2019-093A,2026-06-16T19:43:05.896992,14.95431437,.0012183,97.7809,251.6639,58.1689,302.0716,0,U,44879,999,35199,.14551E-3,.1552E-4,0
ETRSS-1,2019-093B,2026-06-16T19:53:04.362144,14.95861704,.0012226,97.7823,252.1292,58.8582,301.3836,0,U,44880,999,35200,.1186E-3,.1269E-4,0
TIANYAN 01,2019-093C,2026-06-16T20:13:39.087264,14.86521095,.0015145,97.7538,240.0832,87.8796,272.4154,0,U,44881,999,35136,.12133E-3,.1022E-4,0
TIANYAN 02,2019-093D,2026-06-16T20:29:11.090976,15.05226278,.0014198,97.7945,262.6402,31.3448,328.8621,0,U,44882,999,35256,.37117E-3,.5247E-4,0
CBERS 4A,2019-093E,2026-06-16T11:33:45.635616,14.81553935,.00008419,98.0198,234.9210,351.6498,8.4700,0,U,44883,999,35097,.37585067E-4,.241E-5,0
WEILAI 1R,2019-093F,2026-06-16T20:30:33.474240,15.00641995,.0017944,97.7863,257.7392,37.4543,322.7927,0,U,44884,999,35237,.2745E-3,.3421E-4,0
FLORIPASAT-1,2019-093G,2026-06-16T19:49:47.504064,15.03866783,.001272,97.7912,262.0537,72.5321,287.7294,0,U,44885,999,35259,.28008E-3,.3799E-4,0
SHUNTIAN,2019-093H,2026-06-16T19:21:24.122016,14.95162936,.0013335,97.8021,255.9690,69.3167,290.9482,0,U,44886,999,35212,.26441E-3,.2849E-4,0
