FORMOSAT 7-3            
1 44343U 19036E   26167.72117214  .00003138  00000+0  16843-3 0  9993
2 44343  23.9974 181.7483 0000311 254.8807 105.1662 15.09796982383174
FORMOSAT 7-1            
1 44349U 19036L   26167.31347771  .00002369  00000+0  17757-3 0  9997
2 44349  23.9980  38.2834 0000843 147.8049 212.2504 14.96502381384520
FORMOSAT 7-4            
1 44350U 19036M   26167.13591205  .00002272  00000+0  16919-3 0  9994
2 44350  23.9977 101.5852 0001192 163.9496 196.1043 14.96494412383910
FORMOSAT 7-2            
1 44351U 19036N   26167.62500003  .00002015  00000+0  14714-3 0  9991
2 44351  23.9963 152.6047 0000756 151.5374 208.5168 14.96496590383502
FORMOSAT 7-6            
1 44353U 19036Q   26167.75812536  .00002328  00000+0  17396-3 0  9990
2 44353  23.9992 332.5244 0001434  89.3524 270.7141 14.96510275381757
FORMOSAT 7-5            
1 44358U 19036V   26167.60202666  .00002190  00000+0  16209-3 0  9995
2 44358  23.9976 272.3289 0000593 117.3250 242.7311 14.96516314382262
METEOR-M2 2             
1 44387U 19038A   26167.89344216 -.00000256  00000+0 -90889-4 0  9998
2 44387  98.9138 155.1742 0002075  49.1149 311.0209 14.24364800361258
GLOBAL-4                
1 44499U 19054E   26167.50305808  .00039560  00000+0  40498-3 0  9990
2 44499  45.0049 240.3485 0006086 331.7510  28.3057 15.64356641380254
ZY-1 02D                
1 44528U 19059A   26167.23287385 -.00000080  00000+0 -13307-4 0  9994
2 44528  98.3193 228.7512 0002435 108.2928 251.8523 14.35458803354200
TAURUS-1 (JINNIUZUO 1)  
1 44530U 19059C   26167.83494125  .00004358  00000+0  70125-3 0  9995
2 44530  98.6411 332.6407 0007441 317.9559  42.1074 14.72093757358590
ZHUHAI-1 03B            
1 44536U 19060C   26167.86139363  .00026470  00000+0  40877-3 0  9996
2 44536  97.5529 325.6084 0007468 319.0825  40.9867 15.54073289376275
ZHUHAI-1 03D            
1 44538U 19060E   26167.83632997  .00027112  00000+0  48874-3 0  9995
2 44538  97.5396 317.7064 0006632 301.7933  58.2671 15.49732645376029
ZHUHAI-1 03E            
1 44539U 19060F   26167.85394236  .00014581  00000+0  35467-3 0  9999
2 44539  97.5615 317.7889 0005962  34.4256 325.7375 15.41056410375711
GAOFEN-7                
1 44703U 19072A   26167.87008425  .00003717  00000+0  16858-3 0  9991
2 44703  97.2429 229.3495 0018860  42.4980 317.7712 15.21262283367597
JILIN-1 GAOFEN 2A       
1 44777U 19075A   26167.81008475  .00012085  00000+0  31172-3 0  9998
2 44777  97.4970 251.5909 0007475  88.5699 271.6402 15.39300782364829
NINGXIA-1 1             
1 44779U 19076A   26167.82528758 -.00000085  00000+0  29196-4 0  9995
2 44779  45.0036 181.4693 0010608 161.7337 198.3880 14.02038164337803
NINGXIA-1 5             
1 44783U 19076E   26167.83859182  .00000058  00000+0  12180-3 0  9992
2 44783  45.0033 180.7515 0010051 151.2184 208.9206 14.02087043337727
KL-ALPHA A              
1 44785U 19077A   26167.82507291  .00000054  00000+0  58649-4 0  9992
2 44785  88.9253 222.6042 0013246 106.7241 253.5368 13.56042876325688
CARTOSAT-3              
1 44804U 19081A   26167.82802094  .00002673  00000+0  12969-3 0  9991
2 44804  97.4305 229.7008 0013193 149.3681 210.8327 15.19278587363410
JILIN-1 GAOFEN 2B       
1 44836U 19086A   26167.81820295  .00005047  00000+0  23226-3 0  9999
2 44836  97.4884 239.8112 0012880 325.7681  34.2723 15.20707915360438
TIANQIN 1 (CAS-6)       
1 44879U 19093A   26167.82159603  .00001552  00000+0  14551-3 0  9991
2 44879  97.7809 251.6639 0012183  58.1689 302.0716 14.95431437351995
ETRSS-1                 
1 44880U 19093B   26167.82852271  .00001269  00000+0  11860-3 0  9999
2 44880  97.7823 252.1292 0012226  58.8582 301.3836 14.95861704352003
TIANYAN 01              
1 44881U 19093C   26167.84281351  .00001022  00000+0  12133-3 0  9998
2 44881  97.7538 240.0832 0015145  87.8796 272.4154 14.86521095351360
TIANYAN 02              
1 44882U 19093D   26167.85360059  .00005247  00000+0  37117-3 0  9995
2 44882  97.7945 262.6402 0014198  31.3448 328.8621 15.05226278352566
CBERS 4A                
1 44883U 19093E   26167.48177819  .00000241  00000+0  37585-4 0  9994
2 44883  98.0198 234.9210 0000841 351.6498   8.4700 14.81553935350971
WEILAI 1R               
1 44884U 19093F   26167.85455410  .00003421  00000+0  27450-3 0  9994
2 44884  97.7863 257.7392 0017944  37.4543 322.7927 15.00641995352378
FLORIPASAT-1            
1 44885U 19093G   26167.82624426  .00003799  00000+0  28008-3 0  9995
2 44885  97.7912 262.0537 0012720  72.5321 287.7294 15.03866783352593
SHUNTIAN                
1 44886U 19093H   26167.80652919  .00002849  00000+0  26441-3 0  9996
2 44886  97.8021 255.9690 0013335  69.3167 290.9482 14.95162936352125
